{"type":"FeatureCollection","features":[{"type":"Feature","properties":{"ref":"L2","name":"Línea 2 (en construcción)","colour":"#FFC300"},"geometry":{"type":"MultiLineString","coordinates":[[[-76.9750547,-12.059173],[-76.9781305,-12.0606076],[-76.9785033,-12.0607825],[-76.9788645,-12.0609934],[-76.9798039,-12.0616327],[-76.9810001,-12.0624777],[-76.9815821,-12.0628609],[-76.9818742,-12.0630332],[-76.9820765,-12.0631165],[-76.9822844,-12.0631775],[-76.983712,-12.0634418],[-76.9858249,-12.0637994],[-76.9882842,-12.0642863],[-76.9886082,-12.0643194],[-76.9889493,-12.06434],[-76.9900731,-12.0643123],[-76.9905999,-12.0642782],[-76.9987361,-12.0636285],[-77.0009258,-12.0633329],[-77.0012614,-12.0632804],[-77.001591,-12.0632044],[-77.002004,-12.0630712],[-77.0027324,-12.0627792],[-77.0038125,-12.0623384],[-77.0045382,-12.0620215],[-77.0054918,-12.0614444],[-77.006002,-12.0611534],[-77.0066407,-12.0608418],[-77.00698,-12.0607188],[-77.0073808,-12.0606162],[-77.0080698,-12.0605556],[-77.0093198,-12.0605962],[-77.010051,-12.0606562],[-77.0120954,-12.0609272],[-77.0189033,-12.0617804],[-77.0215829,-12.0621461],[-77.0266586,-12.0628052],[-77.0305669,-12.0633618]],[[-77.0305723,-12.0633211],[-77.0266641,-12.0627644],[-77.0215885,-12.0621054],[-77.0189089,-12.0617396],[-77.0121008,-12.0608864],[-77.0100533,-12.0606152],[-77.0093201,-12.0605551],[-77.0080689,-12.0605145],[-77.0073746,-12.0605756],[-77.0069695,-12.060679],[-77.006628,-12.0608027],[-77.0059847,-12.0611159],[-77.0054709,-12.0614087],[-77.0045215,-12.0619838],[-77.0037964,-12.0623005],[-77.002718,-12.0627406],[-77.0019903,-12.0630323],[-77.0015794,-12.0631651],[-77.0012538,-12.06324],[-77.00092,-12.0632922],[-76.998733,-12.0635875],[-76.9963101,-12.063781],[-76.990597,-12.0642372],[-76.9900703,-12.0642713],[-76.9889499,-12.0642989],[-76.9886121,-12.0642784],[-76.9882896,-12.0642455],[-76.9858316,-12.0637588],[-76.9837183,-12.0634012],[-76.9822947,-12.0631377],[-76.9820908,-12.0630778],[-76.9818904,-12.0629953],[-76.9816046,-12.0628261],[-76.9810237,-12.0624436],[-76.9798272,-12.0615985],[-76.9788883,-12.0609595],[-76.9785224,-12.0607462],[-76.9781459,-12.0605693],[-76.9750705,-12.0591349]],[[-76.9176888,-12.0251964],[-76.9189337,-12.025612],[-76.9196725,-12.0258975],[-76.9213836,-12.0268253],[-76.9228378,-12.027816],[-76.9231292,-12.0280304],[-76.9234373,-12.0283116],[-76.9242336,-12.0291243],[-76.9262615,-12.0315062],[-76.9299059,-12.0357805],[-76.9322008,-12.0384722],[-76.9343577,-12.0410255],[-76.9354436,-12.0422689],[-76.9359128,-12.0428014],[-76.9361736,-12.0430227],[-76.9363641,-12.0431486],[-76.9365536,-12.043261],[-76.9373438,-12.0435784]],[[-76.9373284,-12.0436166],[-76.936534,-12.0432973],[-76.936343,-12.0431841],[-76.93615,-12.0430566],[-76.9358854,-12.0428326],[-76.935413,-12.0422971],[-76.9343278,-12.0410543],[-76.9321694,-12.0384995],[-76.9298744,-12.0358077],[-76.9265179,-12.031878],[-76.9262284,-12.0315314],[-76.9242026,-12.0291521],[-76.9234104,-12.0283432],[-76.9231024,-12.028062],[-76.9228148,-12.0278505],[-76.9213614,-12.0268601],[-76.9196559,-12.0259352],[-76.9189203,-12.025651],[-76.9176758,-12.0252355]],[[-77.0894582,-12.0520155],[-77.0914891,-12.0523748],[-77.100908,-12.0540379],[-77.1049227,-12.054823],[-77.1104904,-12.0560189],[-77.1156259,-12.0571288],[-77.1162221,-12.0572569],[-77.1204913,-12.0580616],[-77.1218527,-12.0582633],[-77.1248423,-12.0586062],[-77.1257617,-12.0587116],[-77.1264451,-12.0587863],[-77.1272101,-12.0588225],[-77.1275875,-12.0588235],[-77.1278815,-12.0587893],[-77.128163,-12.0587267],[-77.1284626,-12.0586021],[-77.1292295,-12.0581826],[-77.1326427,-12.0561285],[-77.1373992,-12.0532384],[-77.1381572,-12.052779]],[[-77.1381789,-12.0528142],[-77.1374208,-12.0532736],[-77.1326643,-12.0561637],[-77.1292509,-12.058218],[-77.1284785,-12.0586401],[-77.1281726,-12.0587667],[-77.127889,-12.0588297],[-77.1275899,-12.0588646],[-77.1272102,-12.0588636],[-77.1264431,-12.0588273],[-77.125757,-12.0587524],[-77.1218481,-12.0583042],[-77.1204856,-12.0581023],[-77.1162132,-12.057297],[-77.1156171,-12.0571689],[-77.1104816,-12.0560591],[-77.1049138,-12.0548631],[-77.1009013,-12.0540784],[-77.0914811,-12.0524152],[-77.0894502,-12.0520559]],[[-77.0423183,-12.0599856],[-77.0452209,-12.0591012],[-77.0512372,-12.0573114],[-77.0538146,-12.056541],[-77.0562842,-12.0557858],[-77.0565611,-12.0557399],[-77.0569281,-12.0557072],[-77.0571856,-12.0557174],[-77.0581117,-12.0558415],[-77.061524,-12.0564743],[-77.0652347,-12.0572],[-77.068848,-12.0579123],[-77.0758639,-12.059427]],[[-77.0758546,-12.0594671],[-77.0688387,-12.0579524],[-77.0652261,-12.0572402],[-77.061516,-12.0565146],[-77.0581048,-12.055882],[-77.0571852,-12.0557585],[-77.0569301,-12.0557483],[-77.056566,-12.0557807],[-77.0562922,-12.0558261],[-77.0538256,-12.0565806],[-77.0512487,-12.0573509],[-77.0452324,-12.0591407],[-77.0423298,-12.0600251]],[[-77.0894502,-12.0520559],[-77.0886771,-12.0519217],[-77.0877207,-12.0518047],[-77.0877181,-12.0518044],[-77.0875614,-12.0518118],[-77.0874357,-12.0518245],[-77.0872618,-12.0518683],[-77.0871313,-12.051922],[-77.0865467,-12.0523216],[-77.0834846,-12.0544513],[-77.082312,-12.0552668],[-77.0812464,-12.055901],[-77.0804981,-12.0564879],[-77.0803775,-12.0566074],[-77.0801022,-12.057007],[-77.0781557,-12.0593927],[-77.0779588,-12.0595417],[-77.0777708,-12.059637],[-77.0775744,-12.0596864],[-77.0774161,-12.0597043],[-77.0770501,-12.059675],[-77.0763354,-12.0595665],[-77.0758546,-12.0594671]],[[-77.0894582,-12.0520155],[-77.0886829,-12.0518809],[-77.08772,-12.0517632],[-77.0875572,-12.0517706],[-77.0874261,-12.0517844],[-77.0872478,-12.0518295],[-77.0871118,-12.0518855],[-77.0871009,-12.0518929],[-77.0865223,-12.0522877],[-77.0859752,-12.0526718],[-77.0852658,-12.0531599],[-77.0852214,-12.0531885],[-77.0851556,-12.0532343],[-77.0822896,-12.0552319],[-77.0812234,-12.0558666],[-77.0804722,-12.0564554],[-77.080345,-12.0565813],[-77.0800682,-12.0569828],[-77.0781291,-12.0593606],[-77.0779384,-12.0595057],[-77.0777554,-12.0595988],[-77.0775658,-12.0596461],[-77.0774139,-12.0596632],[-77.0770528,-12.0596339],[-77.0763438,-12.0595262],[-77.0758639,-12.059427]],[[-77.0305669,-12.0633618],[-77.0321043,-12.0635444],[-77.0324265,-12.0635135],[-77.0327653,-12.0634545],[-77.0330502,-12.0633609],[-77.03338,-12.063218],[-77.0336406,-12.0630554],[-77.0339165,-12.0628295],[-77.0340922,-12.0626166],[-77.0342761,-12.062341],[-77.0345659,-12.0617112],[-77.0349963,-12.060917],[-77.0352243,-12.0605483],[-77.0353572,-12.0603953],[-77.0356087,-12.0602339],[-77.0359284,-12.0600836],[-77.0362191,-12.0599864],[-77.0365572,-12.0599167],[-77.0368958,-12.0598764],[-77.0377747,-12.0599211],[-77.0408292,-12.0602048],[-77.0415552,-12.0601705],[-77.0423298,-12.0600251]],[[-77.0423183,-12.0599856],[-77.0415496,-12.0601298],[-77.0408329,-12.0601638],[-77.0377775,-12.0598801],[-77.0368938,-12.0598353],[-77.0365507,-12.059876],[-77.0362064,-12.0599472],[-77.0359147,-12.0600447],[-77.0355872,-12.0601985],[-77.0353302,-12.0603638],[-77.0351927,-12.0605211],[-77.0349593,-12.0608973],[-77.0345287,-12.0616918],[-77.0342406,-12.0623189],[-77.0340613,-12.0625887],[-77.0338869,-12.0628003],[-77.0336166,-12.0630215],[-77.033362,-12.0631808],[-77.0330355,-12.0633223],[-77.0327544,-12.0634147],[-77.0324199,-12.0634728],[-77.0321032,-12.0635033],[-77.0305723,-12.0633211]],[[-77.1224825,-11.9985787],[-77.1192329,-11.999769],[-77.1187024,-11.9999707],[-77.1176007,-12.0002087],[-77.1171985,-12.0003277],[-77.1168167,-12.0006119],[-77.1164179,-12.0010251],[-77.1162084,-12.0013425],[-77.1158637,-12.0018515],[-77.1154311,-12.0026845],[-77.1139712,-12.0057553],[-77.1125789,-12.0086343],[-77.1112001,-12.0116092],[-77.1074182,-12.0190848],[-77.1063612,-12.021244],[-77.1052107,-12.02359],[-77.1029503,-12.027777],[-77.1023405,-12.0290056],[-77.1016389,-12.0308788],[-77.1013415,-12.0315794],[-77.1001351,-12.0340451],[-77.0999053,-12.0347127],[-77.0997363,-12.0355985],[-77.0996529,-12.0363999],[-77.0995819,-12.037051],[-77.0994637,-12.0379236],[-77.0993758,-12.0390176],[-77.099199,-12.0403137],[-77.0990867,-12.0410207],[-77.0989693,-12.0426893],[-77.0984315,-12.0483424],[-77.0984187,-12.0494344],[-77.0983854,-12.0504588],[-77.098306,-12.0516535],[-77.098137,-12.053453],[-77.0981113,-12.0537887],[-77.0981043,-12.0538914],[-77.0980903,-12.0539394],[-77.0980319,-12.0539759],[-77.0979829,-12.0539828],[-77.0979268,-12.0539668],[-77.0978685,-12.0539417],[-77.0978428,-12.0538252],[-77.0978996,-12.0536331],[-77.0979303,-12.0535279],[-77.098002,-12.0533751],[-77.0982947,-12.0509587],[-77.0983881,-12.0478873],[-77.0986987,-12.0445418],[-77.0990302,-12.0408629],[-77.0991166,-12.0402121],[-77.0992334,-12.0393352],[-77.0992474,-12.0386021],[-77.0993291,-12.0372776],[-77.0993921,-12.0370241],[-77.0994669,-12.0367021],[-77.0996093,-12.0361426],[-77.0996957,-12.0353799],[-77.0998148,-12.0347245],[-77.1000716,-12.0340211],[-77.1013045,-12.031589],[-77.10158,-12.0308536],[-77.1023132,-12.0289901],[-77.1056079,-12.0225682],[-77.1064438,-12.0207708],[-77.1085173,-12.0167239],[-77.1158329,-12.0018352],[-77.1164003,-12.0010016],[-77.1167715,-12.0005767],[-77.1171708,-12.0002844],[-77.1175911,-12.0001725],[-77.1187026,-11.9999486],[-77.119228,-11.999745],[-77.1224187,-11.9984528],[-77.1224521,-11.9984383],[-77.1224928,-11.9984383],[-77.1225096,-11.998447],[-77.1225319,-11.9984754],[-77.1225408,-11.9985135],[-77.1225341,-11.998543],[-77.1225163,-11.998567],[-77.1225007,-11.9985724],[-77.1224825,-11.9985787]]]}}]}