{"type":"FeatureCollection","features":[{"type":"Feature","properties":{"ref":"L1","name":"Bayóvar → Villa El Salvador","colour":"#228B22"},"geometry":{"type":"LineString","coordinates":[[-76.9873301,-11.9593674],[-76.9878984,-11.9601769],[-76.9879106,-11.9601686],[-76.9873979,-11.9594383],[-76.9873423,-11.9593591],[-76.9873301,-11.9593674],[-76.9937135,-11.9682777],[-76.9936165,-11.968147],[-76.9931696,-11.9675386],[-76.9931573,-11.9675472],[-76.9931546,-11.9675491],[-76.9937013,-11.9682863],[-76.9937135,-11.9682777],[-77.0005119,-11.9749507],[-76.9999583,-11.974554],[-76.9997013,-11.9743693],[-76.9996943,-11.9743786],[-76.9996881,-11.9743841],[-76.9996757,-11.9743761],[-76.9996666,-11.9743892],[-77.0004936,-11.9749752],[-77.0005119,-11.9749507],[-77.0069787,-11.9853796],[-77.0069207,-11.9852147],[-77.0066621,-11.9844795],[-77.0066341,-11.9844889],[-77.0069507,-11.985389],[-77.0069787,-11.9853796],[-77.0098596,-11.9967081],[-77.0098411,-11.9967045],[-77.0101535,-11.995651],[-77.0101729,-11.9956567],[-77.010124,-11.9958209],[-77.0098596,-11.9967081],[-77.005151,-12.0073721],[-77.0052381,-12.0072373],[-77.0055172,-12.0068066],[-77.0057091,-12.0065098],[-77.005693,-12.0064998],[-77.0051354,-12.0073625],[-77.005151,-12.0073721],[-77.0024568,-12.0176674],[-77.0031011,-12.0184968],[-77.0031315,-12.0184765],[-77.0030354,-12.0183541],[-77.0029242,-12.0182125],[-77.0024779,-12.017644],[-77.0024568,-12.0176674],[-77.0110174,-12.0271616],[-77.0110076,-12.0271658],[-77.0109907,-12.0271729],[-77.0112452,-12.0277513],[-77.0112577,-12.0277797],[-77.0114187,-12.0281455],[-77.0114303,-12.0281406],[-77.0114454,-12.0281342],[-77.0114176,-12.0280711],[-77.0112735,-12.0277435],[-77.011261,-12.0277152],[-77.0110459,-12.0272263],[-77.0110174,-12.0271616],[-77.0120631,-12.0413336],[-77.0120511,-12.0413239],[-77.011387,-12.0421081],[-77.0113989,-12.0421177],[-77.0115628,-12.0419243],[-77.0120631,-12.0413336],[-77.0099725,-12.0456324],[-77.0098438,-12.0460221],[-77.0098284,-12.0460689],[-77.0097769,-12.0462248],[-77.0096421,-12.0466331],[-77.0096187,-12.0466257],[-77.0098204,-12.0460149],[-77.0099491,-12.045625],[-77.0099725,-12.0456324],[-77.0125009,-12.0537474],[-77.0124796,-12.0537636],[-77.0131477,-12.0546012],[-77.0131682,-12.0545856],[-77.0129433,-12.0543036],[-77.012657,-12.053943],[-77.0125009,-12.0537474],[-77.0124327,-12.0652436],[-77.0124197,-12.0653438],[-77.0123713,-12.065735],[-77.0123215,-12.0661235],[-77.0123126,-12.0661918],[-77.0122891,-12.0661889],[-77.0124122,-12.065241],[-77.0124327,-12.0652436],[-77.0112208,-12.0743276],[-77.0111999,-12.0743253],[-77.0110705,-12.0752998],[-77.0110981,-12.0753023],[-77.0111178,-12.0751468],[-77.0111668,-12.0747574],[-77.0112122,-12.0743962],[-77.0112208,-12.0743276],[-77.0037841,-12.0871533],[-77.0037669,-12.0871511],[-77.0038985,-12.086172],[-77.0039177,-12.0861745],[-77.0038886,-12.0863907],[-77.003816,-12.0869161],[-77.0037841,-12.0871533],[-77.0017793,-12.1009248],[-77.0017627,-12.1009226],[-77.0019073,-12.0998829],[-77.0019239,-12.0998851],[-77.0017793,-12.1009248],[-77.0003639,-12.1107949],[-77.0003885,-12.1107976],[-77.000425,-12.110481],[-77.0004522,-12.110245],[-77.0005066,-12.1097731],[-77.0004819,-12.1097704],[-77.0003639,-12.1107949],[-77.0003112,-12.1267388],[-77.0003605,-12.1268605],[-77.0005269,-12.127271],[-77.0006435,-12.1275607],[-77.0006908,-12.1276772],[-77.0006557,-12.1276908],[-77.0002755,-12.1267526],[-77.0003112,-12.1267388],[-76.9972929,-12.1343169],[-76.9971767,-12.1344805],[-76.9968184,-12.1349761],[-76.9967002,-12.1351342],[-76.9966534,-12.1351967],[-76.9966456,-12.1351917],[-76.9972846,-12.1343122],[-76.9972929,-12.1343169],[-76.9914517,-12.1421655],[-76.9914406,-12.1421561],[-76.9906766,-12.1430213],[-76.9906882,-12.143031],[-76.9911883,-12.1424636],[-76.9914517,-12.1421655],[-76.9799589,-12.1507161],[-76.9799228,-12.1507317],[-76.9795536,-12.1508932],[-76.9792875,-12.1510099],[-76.9789792,-12.151143],[-76.9789749,-12.1511336],[-76.9789663,-12.1511146],[-76.9799479,-12.1506918],[-76.9799589,-12.1507161],[-76.9662961,-12.1562939],[-76.9653284,-12.1566865],[-76.9653324,-12.1566959],[-76.965351,-12.1567398],[-76.9663187,-12.1563471],[-76.9662961,-12.1562939],[-76.9565137,-12.1609373],[-76.9565319,-12.1609504],[-76.9558874,-12.1617641],[-76.9558601,-12.1617444],[-76.9565059,-12.1609316],[-76.9565137,-12.1609373],[-76.9506331,-12.1688325],[-76.9500824,-12.1697882],[-76.9501122,-12.1698046],[-76.950663,-12.1688489],[-76.9506495,-12.1688415],[-76.9506331,-12.1688325],[-76.9469144,-12.1824198],[-76.9471196,-12.1811709],[-76.9401182,-12.1960577],[-76.9401413,-12.1960707],[-76.9401604,-12.1960815],[-76.9396351,-12.1969702],[-76.9395929,-12.1969464],[-76.9401182,-12.1960577],[-76.9330071,-12.2078979],[-76.9330629,-12.2079295],[-76.9333807,-12.2073912],[-76.9334845,-12.2072179],[-76.9335607,-12.2070893],[-76.9335396,-12.2070774],[-76.9335049,-12.2070577],[-76.933428,-12.2071875],[-76.9333256,-12.2073604],[-76.9330071,-12.2078979],[-76.986638,-11.9584243],[-76.9855506,-11.9568666],[-76.9855026,-11.9567389],[-76.9854656,-11.9565722],[-76.985475,-11.9563829],[-76.9855689,-11.9561914],[-76.986638,-11.9584243],[-76.9872233,-11.9592417],[-76.9874361,-11.9595388],[-76.9874361,-11.9595388],[-76.9884003,-11.9609052],[-76.9884003,-11.9609052],[-76.9898803,-11.9630661],[-76.9898803,-11.9630661],[-76.9917501,-11.9656721],[-76.9934685,-11.9679907],[-76.9952302,-11.9704085],[-76.9952302,-11.9704085],[-76.9959278,-11.9713634],[-76.9962026,-11.9717006],[-76.9964898,-11.9720147],[-76.9968801,-11.9723626],[-76.9972086,-11.9726253],[-76.9993836,-11.9741915],[-76.9993836,-11.9741915],[-77.0000577,-11.9746696],[-77.0007873,-11.975187],[-77.0007873,-11.975187],[-77.0026555,-11.9765292],[-77.0026555,-11.9765292],[-77.0029832,-11.9768107],[-77.0030622,-11.976895],[-77.0032659,-11.9771379],[-77.003893,-11.9779843],[-77.004325,-11.9786],[-77.0045125,-11.9788963],[-77.0048667,-11.9795837],[-77.0050816,-11.9800808],[-77.0052239,-11.9804028],[-77.0052239,-11.9804028],[-77.0064803,-11.9840553],[-77.0064803,-11.9840553],[-77.0068189,-11.9850291],[-77.0070195,-11.9856061],[-77.0070195,-11.9856061],[-77.0070489,-11.9856832],[-77.0071076,-11.9857922],[-77.0073027,-11.9861421],[-77.007493,-11.9863854],[-77.0076091,-11.9865235],[-77.0077482,-11.9866447],[-77.0079189,-11.986797],[-77.0087828,-11.9875117],[-77.0098205,-11.9885039],[-77.0100285,-11.9887203],[-77.0102552,-11.989],[-77.0104462,-11.9892831],[-77.0106968,-11.9897467],[-77.0108511,-11.9900927],[-77.0109198,-11.990264],[-77.0109734,-11.9904605],[-77.011076,-11.990974],[-77.0111092,-11.9912575],[-77.0111342,-11.9915052],[-77.0111342,-11.9918646],[-77.0111177,-11.9920662],[-77.0110972,-11.9922438],[-77.011056,-11.9925238],[-77.0110255,-11.9926726],[-77.0109818,-11.9928566],[-77.0102705,-11.9952358],[-77.0102705,-11.9952358],[-77.0099996,-11.9961407],[-77.0097459,-11.9969879],[-77.0097459,-11.9969879],[-77.0089123,-11.9999395],[-77.0086341,-12.0009439],[-77.0083977,-12.0018846],[-77.0083448,-12.0020438],[-77.0082708,-12.0022389],[-77.0082062,-12.0023889],[-77.0081351,-12.0025534],[-77.0080344,-12.0027659],[-77.0078293,-12.003108],[-77.0061276,-12.0058267],[-77.0059546,-12.006082],[-77.0059546,-12.006082],[-77.0054369,-12.0068886],[-77.004935,-12.0076704],[-77.004935,-12.0076704],[-77.0026401,-12.0112572],[-77.0026401,-12.0112572],[-77.0025355,-12.0114459],[-77.0024428,-12.0116352],[-77.0023657,-12.0118112],[-77.0022534,-12.0121359],[-77.0021506,-12.012537],[-77.0021114,-12.0128268],[-77.0020957,-12.0130121],[-77.0019924,-12.0143855],[-77.0019097,-12.015837],[-77.0019028,-12.0160711],[-77.0019044,-12.0162353],[-77.0019074,-12.0163503],[-77.0019365,-12.0166054],[-77.0019365,-12.0166054],[-77.0019642,-12.0167452],[-77.0020005,-12.0168899],[-77.0020573,-12.017036],[-77.0021351,-12.017195],[-77.0022327,-12.0173593],[-77.0023063,-12.0174839],[-77.0023063,-12.0174839],[-77.0027868,-12.0181034],[-77.0028401,-12.0181722],[-77.0033044,-12.0187709],[-77.0033044,-12.0187709],[-77.0034054,-12.0188923],[-77.0035198,-12.0190023],[-77.0035865,-12.0190652],[-77.0038163,-12.0192791],[-77.0041432,-12.0195612],[-77.0045635,-12.0199053],[-77.0047556,-12.020063],[-77.0050614,-12.0203645],[-77.0052338,-12.0205229],[-77.0073552,-12.0227952],[-77.0076487,-12.0231176],[-77.0086019,-12.0241057],[-77.0099043,-12.025489],[-77.0103537,-12.0260344],[-77.0104527,-12.0261619],[-77.010543,-12.0262892],[-77.0107667,-12.0266865],[-77.0107667,-12.0266865],[-77.011182,-12.0276291],[-77.0115476,-12.028459],[-77.0115476,-12.028459],[-77.0116292,-12.028677],[-77.0117125,-12.0289405],[-77.0117125,-12.0289405],[-77.0119765,-12.0298201],[-77.0121977,-12.0306585],[-77.0122404,-12.0308511],[-77.0122606,-12.031062],[-77.0122582,-12.0313313],[-77.0122473,-12.0315654],[-77.0122115,-12.031883],[-77.0120614,-12.0327575],[-77.011949,-12.0335649],[-77.0119348,-12.0338098],[-77.0119357,-12.0341734],[-77.0119465,-12.0343599],[-77.0119705,-12.0345519],[-77.0120127,-12.0347896],[-77.0120472,-12.034931],[-77.0121005,-12.035118],[-77.0123702,-12.0361515],[-77.0123702,-12.0361515],[-77.0127371,-12.0375142],[-77.0127371,-12.0375142],[-77.0129936,-12.0384795],[-77.0130504,-12.0387701],[-77.0130841,-12.0389794],[-77.0131024,-12.0391961],[-77.013091,-12.0393759],[-77.0130579,-12.0396376],[-77.0130085,-12.0398395],[-77.0129611,-12.0399903],[-77.0129,-12.0401437],[-77.0127974,-12.0403609],[-77.0126643,-12.0405826],[-77.0125368,-12.040747],[-77.0125368,-12.040747],[-77.0117007,-12.0417328],[-77.0111205,-12.0424251],[-77.0111205,-12.0424251],[-77.0110618,-12.0425027],[-77.0110072,-12.0425832],[-77.0109401,-12.0426961],[-77.0108812,-12.0428133],[-77.0108443,-12.0428901],[-77.0108101,-12.0429681],[-77.0107785,-12.0430473],[-77.0107497,-12.0431275],[-77.0105853,-12.0436204],[-77.0105853,-12.0436204],[-77.0097958,-12.0460657],[-77.0095069,-12.0469606],[-77.0095069,-12.0469606],[-77.0094567,-12.0471966],[-77.0094354,-12.0473762],[-77.0094161,-12.0476378],[-77.009456,-12.0486029],[-77.0095062,-12.0495235],[-77.0095248,-12.0496636],[-77.0095742,-12.0498802],[-77.0096344,-12.0500786],[-77.0097153,-12.0502735],[-77.009824,-12.050474],[-77.0098951,-12.0505832],[-77.0099487,-12.0506586],[-77.0108607,-12.0517465],[-77.0108607,-12.0517465],[-77.0122023,-12.0534217],[-77.0122023,-12.0534217],[-77.0127643,-12.0541286],[-77.0138155,-12.0554507],[-77.0138155,-12.0554507],[-77.0139616,-12.055661],[-77.0140381,-12.0557958],[-77.0141122,-12.0559479],[-77.0142372,-12.0562567],[-77.0143107,-12.0566072],[-77.014347,-12.056885],[-77.0143527,-12.0571844],[-77.0143122,-12.0575669],[-77.0142699,-12.05777],[-77.0142502,-12.0578557],[-77.014213,-12.0579562],[-77.0138355,-12.0589249],[-77.0132363,-12.0603913],[-77.0131182,-12.0606645],[-77.0130479,-12.0608548],[-77.0129937,-12.061014],[-77.0129308,-12.061229],[-77.0127932,-12.0620968],[-77.0127492,-12.0625769],[-77.0127492,-12.0625769],[-77.0123953,-12.0653165],[-77.0120713,-12.0678249],[-77.0119126,-12.0690531],[-77.0119126,-12.0690531],[-77.0116391,-12.0710518],[-77.0111362,-12.0747278],[-77.010921,-12.0763005],[-77.010921,-12.0763005],[-77.0108731,-12.0767268],[-77.0108527,-12.0768414],[-77.0107956,-12.0771072],[-77.0107283,-12.0773176],[-77.0104073,-12.0782428],[-77.0103487,-12.0783813],[-77.0102544,-12.0785633],[-77.010182,-12.078702],[-77.0100935,-12.0788534],[-77.0099989,-12.0790045],[-77.0099339,-12.0790872],[-77.0097777,-12.0792563],[-77.0096452,-12.0793895],[-77.009483,-12.0795465],[-77.0092733,-12.079699],[-77.0090309,-12.0798326],[-77.0087748,-12.079953],[-77.0084825,-12.0800669],[-77.0083247,-12.0801217],[-77.0076,-12.080328],[-77.0070073,-12.0805072],[-77.0066585,-12.0806072],[-77.006411,-12.0806887],[-77.0061505,-12.0808024],[-77.0059849,-12.0808857],[-77.0058201,-12.0809833],[-77.0056788,-12.0810775],[-77.0055227,-12.0811956],[-77.005324,-12.0813621],[-77.00517,-12.0815143],[-77.0051004,-12.0815879],[-77.004942,-12.0817786],[-77.0048387,-12.0819218],[-77.0047275,-12.0821038],[-77.0046194,-12.0823007],[-77.0045357,-12.0824751],[-77.0044815,-12.0826007],[-77.0043914,-12.0828667],[-77.0043343,-12.0830887],[-77.0042971,-12.0832739],[-77.0042591,-12.0835058],[-77.0042046,-12.0838671],[-77.0042046,-12.0838671],[-77.0039074,-12.0858576],[-77.0039074,-12.0858576],[-77.0037928,-12.0868084],[-77.0037126,-12.0874741],[-77.0037126,-12.0874741],[-77.0032894,-12.0901691],[-77.0027787,-12.0938648],[-77.0021347,-12.0981442],[-77.0021347,-12.0981442],[-77.0018215,-12.1003705],[-77.0016695,-12.1014514],[-77.0016695,-12.1014514],[-77.0013762,-12.10338],[-77.0006757,-12.1084052],[-77.0006207,-12.1088514],[-77.0005945,-12.1090488],[-77.0004761,-12.1096892],[-77.0004761,-12.1096892],[-77.0003895,-12.1104318],[-77.0002807,-12.111365],[-77.0002807,-12.111365],[-77.0002531,-12.1116122],[-77.0001421,-12.1123443],[-77.0000556,-12.1128068],[-77.0000311,-12.1129202],[-76.9998327,-12.1136357],[-76.9996375,-12.1143406],[-76.9994101,-12.1151391],[-76.9992615,-12.1156559],[-76.9991354,-12.1161199],[-76.9989743,-12.1167015],[-76.9988174,-12.1172782],[-76.9986033,-12.1180268],[-76.9985559,-12.1181995],[-76.9985365,-12.1182728],[-76.9985209,-12.1183423],[-76.9984724,-12.1185453],[-76.9984184,-12.1188639],[-76.998338,-12.1194698],[-76.9983095,-12.119846],[-76.9983,-12.1201465],[-76.9982964,-12.1203874],[-76.9982897,-12.1206418],[-76.9983104,-12.1210875],[-76.998345,-12.1215136],[-76.998365,-12.1216787],[-76.9983773,-12.1217719],[-76.998398,-12.121863],[-76.9984207,-12.1219648],[-76.9984451,-12.1220603],[-76.9985943,-12.1224874],[-76.9985943,-12.1224874],[-77.0004561,-12.1272446],[-77.0007199,-12.1279187],[-77.0007199,-12.1279187],[-77.0007432,-12.127991],[-77.0007921,-12.1281489],[-77.00081,-12.1282181],[-77.0008378,-12.128372],[-77.0008479,-12.1286141],[-77.0008394,-12.1287623],[-77.0008167,-12.1289232],[-77.0007777,-12.1290926],[-77.000746,-12.1291909],[-77.0007025,-12.1292875],[-77.0006451,-12.1294088],[-76.9995849,-12.1310297],[-76.9980816,-12.1332191],[-76.9980816,-12.1332191],[-76.9969951,-12.1346967],[-76.9962051,-12.1357712],[-76.9962051,-12.1357712],[-76.9945323,-12.1381763],[-76.9938014,-12.1392721],[-76.993209,-12.1400992],[-76.9930096,-12.1403511],[-76.9928826,-12.1405048],[-76.9923587,-12.1411098],[-76.9922945,-12.1411895],[-76.9910694,-12.1425549],[-76.9899895,-12.1437584],[-76.9893282,-12.1445458],[-76.987703,-12.1466348],[-76.9875878,-12.1467645],[-76.9874253,-12.1469306],[-76.9872725,-12.1470795],[-76.9871132,-12.1472078],[-76.9869315,-12.1473436],[-76.9867849,-12.1474448],[-76.9867849,-12.1474448],[-76.9866527,-12.1475206],[-76.9855057,-12.1481123],[-76.9843121,-12.1487222],[-76.9833947,-12.1491486],[-76.9826173,-12.1494973],[-76.9819678,-12.1497791],[-76.9805472,-12.1504021],[-76.9800518,-12.1506304],[-76.9800518,-12.1506304],[-76.9794047,-12.1509155],[-76.9779739,-12.151546],[-76.9779739,-12.151546],[-76.9696781,-12.1549107],[-76.9696781,-12.1549107],[-76.9655735,-12.1565791],[-76.9617096,-12.1581497],[-76.9617096,-12.1581497],[-76.958209,-12.1595552],[-76.958027,-12.1596414],[-76.9578767,-12.1597232],[-76.9577002,-12.1598241],[-76.9575618,-12.1599156],[-76.9574432,-12.1599974],[-76.957304,-12.1600989],[-76.9571892,-12.1601909],[-76.9569794,-12.1603655],[-76.9569794,-12.1603655],[-76.9568834,-12.160463],[-76.9567921,-12.1605673],[-76.9567921,-12.1605673],[-76.9562763,-12.1612151],[-76.9557573,-12.1618669],[-76.9557573,-12.1618669],[-76.9556292,-12.1620361],[-76.9534649,-12.1648538],[-76.9525984,-12.1659878],[-76.9516044,-12.1672576],[-76.9513522,-12.1676072],[-76.9512098,-12.1678221],[-76.951125,-12.1679621],[-76.9507894,-12.168527],[-76.9507894,-12.168527],[-76.9503392,-12.1693008],[-76.9498688,-12.1701092],[-76.9498688,-12.1701092],[-76.9494653,-12.1708386],[-76.9494653,-12.1708386],[-76.9492788,-12.1712163],[-76.9492788,-12.1712163],[-76.9491699,-12.1715479],[-76.9491699,-12.1715479],[-76.9491499,-12.1717681],[-76.9491499,-12.1717681],[-76.9491541,-12.1719785],[-76.9491541,-12.1719785],[-76.949158,-12.1720801],[-76.9491752,-12.1722172],[-76.9493362,-12.1730055],[-76.9493959,-12.1733261],[-76.9494189,-12.1735135],[-76.9494247,-12.1737052],[-76.9494138,-12.1748787],[-76.9493944,-12.1751698],[-76.9493696,-12.1754189],[-76.9493299,-12.1756143],[-76.9492434,-12.17593],[-76.9491057,-12.1762448],[-76.9489645,-12.1765362],[-76.9482012,-12.177912],[-76.9475849,-12.1790293],[-76.9475036,-12.1792141],[-76.9474041,-12.1794717],[-76.9473259,-12.1797316],[-76.9472689,-12.1800009],[-76.9471884,-12.1805371],[-76.9471884,-12.1805371],[-76.9470393,-12.1815146],[-76.9469406,-12.1821617],[-76.9469406,-12.1821617],[-76.9468843,-12.1825309],[-76.9468843,-12.1825309],[-76.9467104,-12.1836706],[-76.9467104,-12.1836706],[-76.9466021,-12.1843148],[-76.9465212,-12.1849257],[-76.946463,-12.1851561],[-76.946392,-12.1854117],[-76.9463324,-12.1855732],[-76.9462642,-12.1857346],[-76.94621,-12.1858469],[-76.94613,-12.1859887],[-76.9458318,-12.1864813],[-76.9454665,-12.1870896],[-76.9451961,-12.1875446],[-76.9447213,-12.1883426],[-76.944086,-12.189401],[-76.944086,-12.189401],[-76.9433562,-12.1906183],[-76.9403694,-12.1956002],[-76.9398828,-12.1964118],[-76.9393119,-12.1973718],[-76.9393119,-12.1973718],[-76.9390523,-12.1977898],[-76.9390523,-12.1977898],[-76.9346512,-12.2051286],[-76.9346512,-12.2051286],[-76.9345311,-12.2053188],[-76.9345311,-12.2053188],[-76.9333063,-12.2073505],[-76.9333063,-12.2073505],[-76.9328727,-12.2080699],[-76.9328727,-12.2080699],[-76.9324653,-12.2087489],[-76.9322869,-12.2090463],[-76.9321539,-12.2092679],[-76.9304232,-12.2121553],[-76.9295443,-12.2136324],[-76.9285623,-12.2152602]]}},{"type":"Feature","properties":{"ref":"L2","name":"Evitamiento → Mercado Santa Anita","colour":"#FFC300"},"geometry":{"type":"LineString","coordinates":[[-76.9738331,-12.0586129],[-76.9726141,-12.0580876],[-76.9713044,-12.0575728],[-76.9691252,-12.0566685],[-76.9682428,-12.0562939],[-76.9672221,-12.0558529],[-76.9646145,-12.0547306],[-76.9625258,-12.0538363],[-76.9612128,-12.0532762],[-76.9589449,-12.052301],[-76.9561761,-12.051082],[-76.9544723,-12.0504269],[-76.9514846,-12.0492295],[-76.9497911,-12.0485593],[-76.9479942,-12.0478454],[-76.9467185,-12.0473364],[-76.9441632,-12.0463169],[-76.9389332,-12.0442408],[-76.9387008,-12.0441485]]}}]}