{"type":"FeatureCollection","features":[{"type":"Feature","properties":{"name":"San Carlos","line":"Línea 1"},"geometry":{"type":"Point","coordinates":[-77.0067756,-11.9849547]}},{"type":"Feature","properties":{"name":"San Martín","line":"Línea 1"},"geometry":{"type":"Point","coordinates":[-77.0001297,-11.9747322]}},{"type":"Feature","properties":{"name":"Gamarra","line":"Línea 1"},"geometry":{"type":"Point","coordinates":[-77.0123842,-12.0652802]}},{"type":"Feature","properties":{"name":"Los Jardines","line":"Línea 1"},"geometry":{"type":"Point","coordinates":[-77.005493,-12.0067742]}},{"type":"Feature","properties":{"name":"Presbítero Maestro","line":"Línea 1"},"geometry":{"type":"Point","coordinates":[-77.0118992,-12.041466]}},{"type":"Feature","properties":{"name":"Caja de Agua","line":"Línea 1"},"geometry":{"type":"Point","coordinates":[-77.0112038,-12.0277285]}},{"type":"Feature","properties":{"name":"Pirámide del Sol","line":"Línea 1"},"geometry":{"type":"Point","coordinates":[-77.0027868,-12.0181034]}},{"type":"Feature","properties":{"name":"Los Postes","line":"Línea 1"},"geometry":{"type":"Point","coordinates":[-77.0100059,-11.9960572]}},{"type":"Feature","properties":{"name":"Bayóvar","line":"Linea 1"},"geometry":{"type":"Point","coordinates":[-76.987438,-11.9595662]}},{"type":"Feature","properties":{"name":"Santa Rosa","line":"Línea 1"},"geometry":{"type":"Point","coordinates":[-76.9936547,-11.9682742]}},{"type":"Feature","properties":{"name":"El Ángel","line":"Línea 1"},"geometry":{"type":"Point","coordinates":[-77.0097644,-12.0460947]}},{"type":"Feature","properties":{"name":"Miguel Grau","line":"Línea 1"},"geometry":{"type":"Point","coordinates":[-77.0130623,-12.0545266]}},{"type":"Feature","properties":{"name":"Arriola","line":"Línea 1"},"geometry":{"type":"Point","coordinates":[-77.0111132,-12.0747256]}},{"type":"Feature","properties":{"name":"La Cultura","line":"Línea 1"},"geometry":{"type":"Point","coordinates":[-77.0037841,-12.0867325]}},{"type":"Feature","properties":{"name":"San Borja Sur","line":"Línea 1"},"geometry":{"type":"Point","coordinates":[-77.001755,-12.1006883]}},{"type":"Feature","properties":{"name":"Angamos","line":"Línea 1"},"geometry":{"type":"Point","coordinates":[-77.0003817,-12.110356]}},{"type":"Feature","properties":{"name":"Cabitos","line":"Linea 1"},"geometry":{"type":"Point","coordinates":[-77.0002828,-12.12686]}},{"type":"Feature","properties":{"name":"Ayacucho","line":"Línea 1"},"geometry":{"type":"Point","coordinates":[-76.9968576,-12.1348601]}},{"type":"Feature","properties":{"name":"Jorge Chávez","line":"Línea 1"},"geometry":{"type":"Point","coordinates":[-76.9910092,-12.1425884]}},{"type":"Feature","properties":{"name":"Atocongo","line":"Linea 1"},"geometry":{"type":"Point","coordinates":[-76.9794918,-12.1508622]}},{"type":"Feature","properties":{"name":"San Juan","line":"Linea 1"},"geometry":{"type":"Point","coordinates":[-76.9652487,-12.1566917]}},{"type":"Feature","properties":{"name":"María Auxiliadora","line":"Línea 1"},"geometry":{"type":"Point","coordinates":[-76.9565974,-12.1607603]}},{"type":"Feature","properties":{"name":"Villa María","line":"Línea 1"},"geometry":{"type":"Point","coordinates":[-76.9506099,-12.1687866]}},{"type":"Feature","properties":{"name":"Villa El Salvador","line":"Línea 1"},"geometry":{"type":"Point","coordinates":[-76.9335222,-12.2069537]}},{"type":"Feature","properties":{"name":"Pumacahua","line":"Línea 1"},"geometry":{"type":"Point","coordinates":[-76.9468845,-12.1823457]}},{"type":"Feature","properties":{"name":"Parque Industrial","line":"Línea 1"},"geometry":{"type":"Point","coordinates":[-76.9401366,-12.195949]}},{"type":"Feature","properties":{"name":"Hermilio Valdizán","line":""},"geometry":{"type":"Point","coordinates":[-76.9467267,-12.047316]}},{"type":"Feature","properties":{"name":"Colectora Industrial","line":""},"geometry":{"type":"Point","coordinates":[-76.9561825,-12.0510626]}},{"type":"Feature","properties":{"name":"Mercado Santa Anita","line":""},"geometry":{"type":"Point","coordinates":[-76.9387096,-12.0441295]}},{"type":"Feature","properties":{"name":"Óvalo Santa Anita","line":""},"geometry":{"type":"Point","coordinates":[-76.9639797,-12.0544289]}},{"type":"Feature","properties":{"name":"Evitamiento","line":""},"geometry":{"type":"Point","coordinates":[-76.9738431,-12.0585936]}},{"type":"Feature","properties":{"name":"Puerto del Callao","line":""},"geometry":{"type":"Point","coordinates":[-77.1382937,-12.0527232]}},{"type":"Feature","properties":{"name":"Plataforma Norte","line":""},"geometry":{"type":"Point","coordinates":[-77.0111357,-12.0276705]}},{"type":"Feature","properties":{"name":"Plataforma Sur","line":""},"geometry":{"type":"Point","coordinates":[-77.011218,-12.0276535]}}]}